{"type": "FeatureCollection", "features": [ {"type": "Feature", "properties": {"norad_id": 33917, "name": "COSMOS 2251 DEB", "group": "cosmos-2251-debris", "lat": 40.73461339438934, "lon": 116.01478103842213, "alt_km": 1222.272647125591, "timestamp": "2025-12-25T07:00:34.441227+00:00", "meta": {"OBJECT_NAME": "COSMOS 2251 DEB", "OBJECT_ID": "1993-036DW", "EPOCH": "2025-12-24T07:59:40.982208", "MEAN_MOTION": 13.69384834, "ECCENTRICITY": 0.03311749, "INCLINATION": 74.1073, "RA_OF_ASC_NODE": 103.3843, "ARG_OF_PERICENTER": 201.8191, "MEAN_ANOMALY": 156.8546, "EPHEMERIS_TYPE": 0, "CLASSIFICATION_TYPE": "U", "NORAD_CAT_ID": 33917, "ELEMENT_SET_NO": 999, "REV_AT_EPOCH": 83892, "BSTAR": 0.0009339361, "MEAN_MOTION_DOT": 1.171e-05, "MEAN_MOTION_DDOT": 0}, "tle": {"line1": "1 33917U 93036DW  25358.33311322  .00001171  00000+0  93394-3 0  9995", "line2": "2 33917  74.1073 103.3843 0331174 201.8191 156.8546 13.69384834838924"}}, "geometry": {"type": "Point", "coordinates": [116.01478103842213, 40.73461339438934]}}, {"type": "Feature", "properties": {"norad_id": 33920, "name": "COSMOS 2251 DEB", "group": "cosmos-2251-debris", "lat": -3.902841986422345, "lon": 95.69111075452385, "alt_km": 703.5661911747284, "timestamp": "2025-12-25T07:00:34.441237+00:00", "meta": {"OBJECT_NAME": "COSMOS 2251 DEB", "OBJECT_ID": "1993-036DZ", "EPOCH": "2025-12-24T03:49:29.683776", "MEAN_MOTION": 14.58442964, "ECCENTRICITY": 0.00377584, "INCLINATION": 74.0614, "RA_OF_ASC_NODE": 276.7258, "ARG_OF_PERICENTER": 281.5069, "MEAN_ANOMALY": 78.1857, "EPHEMERIS_TYPE": 0, "CLASSIFICATION_TYPE": "U", "NORAD_CAT_ID": 33920, "ELEMENT_SET_NO": 999, "REV_AT_EPOCH": 88281, "BSTAR": 0.001697106, "MEAN_MOTION_DOT": 7.93e-05, "MEAN_MOTION_DDOT": 0}, "tle": {"line1": "1 33920U 93036DZ  25358.15937134  .00007930  00000+0  16971-2 0  9998", "line2": "2 33920  74.0614 276.7258 0037758 281.5069  78.1857 14.58442964882819"}}, "geometry": {"type": "Point", "coordinates": [95.69111075452385, -3.902841986422345]}}, {"type": "Feature", "properties": {"norad_id": 33922, "name": "COSMOS 2251 DEB", "group": "cosmos-2251-debris", "lat": -66.59184009361692, "lon": 82.86947451125992, "alt_km": 724.3192776374572, "timestamp": "2025-12-25T07:00:34.441248+00:00", "meta": {"OBJECT_NAME": "COSMOS 2251 DEB", "OBJECT_ID": "1993-036EB", "EPOCH": "2025-12-24T18:40:21.249408", "MEAN_MOTION": 14.49550828, "ECCENTRICITY": 0.00231126, "INCLINATION": 74.0468, "RA_OF_ASC_NODE": 125.191, "ARG_OF_PERICENTER": 234.4874, "MEAN_ANOMALY": 251.3114, "EPHEMERIS_TYPE": 0, "CLASSIFICATION_TYPE": "U", "NORAD_CAT_ID": 33922, "ELEMENT_SET_NO": 999, "REV_AT_EPOCH": 88752, "BSTAR": 0.00050960281, "MEAN_MOTION_DOT": 1.934e-05, "MEAN_MOTION_DDOT": 0}, "tle": {"line1": "1 33922U 93036EB  25358.77802372  .00001934  00000+0  50960-3 0  9998", "line2": "2 33922  74.0468 125.1910 0023112 234.4874 251.3114 14.49550828887523"}}, "geometry": {"type": "Point", "coordinates": [82.86947451125992, -66.59184009361692]}}, {"type": "Feature", "properties": {"norad_id": 33924, "name": "COSMOS 2251 DEB", "group": "cosmos-2251-debris", "lat": 54.48235066577816, "lon": -86.1286085334203, "alt_km": 1271.1168726509968, "timestamp": "2025-12-25T07:00:34.441258+00:00", "meta": {"OBJECT_NAME": "COSMOS 2251 DEB", "OBJECT_ID": "1993-036ED", "EPOCH": "2025-12-24T20:02:59.061984", "MEAN_MOTION": 13.50239131, "ECCENTRICITY": 0.04037941, "INCLINATION": 73.913, "RA_OF_ASC_NODE": 250.7588, "ARG_OF_PERICENTER": 284.0756, "MEAN_ANOMALY": 71.5791, "EPHEMERIS_TYPE": 0, "CLASSIFICATION_TYPE": "U", "NORAD_CAT_ID": 33924, "ELEMENT_SET_NO": 999, "REV_AT_EPOCH": 82902, "BSTAR": 0.00042332524, "MEAN_MOTION_DOT": 4.24e-06, "MEAN_MOTION_DDOT": 0}, "tle": {"line1": "1 33924U 93036ED  25358.83540581  .00000424  00000+0  42333-3 0  9996", "line2": "2 33924  73.9130 250.7588 0403794 284.0756  71.5791 13.50239131829029"}}, "geometry": {"type": "Point", "coordinates": [-86.1286085334203, 54.48235066577816]}}, {"type": "Feature", "properties": {"norad_id": 33928, "name": "COSMOS 2251 DEB", "group": "cosmos-2251-debris", "lat": 34.57344629228964, "lon": 40.39391454452804, "alt_km": 720.354162761012, "timestamp": "2025-12-25T07:00:34.441268+00:00", "meta": {"OBJECT_NAME": "COSMOS 2251 DEB", "OBJECT_ID": "1993-036EH", "EPOCH": "2025-12-24T19:13:57.193824", "MEAN_MOTION": 14.47426209, "ECCENTRICITY": 0.00620303, "INCLINATION": 73.9253, "RA_OF_ASC_NODE": 29.8554, "ARG_OF_PERICENTER": 321.5269, "MEAN_ANOMALY": 38.1474, "EPHEMERIS_TYPE": 0, "CLASSIFICATION_TYPE": "U", "NORAD_CAT_ID": 33928, "ELEMENT_SET_NO": 999, "REV_AT_EPOCH": 88819, "BSTAR": 0.00024854441, "MEAN_MOTION_DOT": 9.04e-06, "MEAN_MOTION_DDOT": 0}, "tle": {"line1": "1 33928U 93036EH  25358.80135641  .00000904  00000+0  24854-3 0  9995", "line2": "2 33928  73.9253  29.8554 0062030 321.5269  38.1474 14.47426209888198"}}, "geometry": {"type": "Point", "coordinates": [40.39391454452804, 34.57344629228964]}}, {"type": "Feature", "properties": {"norad_id": 33932, "name": "COSMOS 2251 DEB", "group": "cosmos-2251-debris", "lat": 35.22682083852816, "lon": 101.10371113837495, "alt_km": 778.5186526285288, "timestamp": "2025-12-25T07:00:34.441279+00:00", "meta": {"OBJECT_NAME": "COSMOS 2251 DEB", "OBJECT_ID": "1993-036EM", "EPOCH": "2025-12-24T20:20:10.088736", "MEAN_MOTION": 14.38792115, "ECCENTRICITY": 0.00359299, "INCLINATION": 74.0343, "RA_OF_ASC_NODE": 293.5864, "ARG_OF_PERICENTER": 6.8678, "MEAN_ANOMALY": 353.2961, "EPHEMERIS_TYPE": 0, "CLASSIFICATION_TYPE": "U", "NORAD_CAT_ID": 33932, "ELEMENT_SET_NO": 999, "REV_AT_EPOCH": 88172, "BSTAR": 0.00045811403, "MEAN_MOTION_DOT": 1.392e-05, "MEAN_MOTION_DDOT": 0}, "tle": {"line1": "1 33932U 93036EM  25358.84733899  .00001392  00000+0  45811-3 0  9991", "line2": "2 33932  74.0343 293.5864 0035929   6.8678 353.2961 14.38792115881729"}}, "geometry": {"type": "Point", "coordinates": [101.10371113837495, 35.22682083852816]}}, {"type": "Feature", "properties": {"norad_id": 33933, "name": "COSMOS 2251 DEB", "group": "cosmos-2251-debris", "lat": 61.77491026924519, "lon": -174.8433590771075, "alt_km": 757.3160023690007, "timestamp": "2025-12-25T07:00:34.441290+00:00", "meta": {"OBJECT_NAME": "COSMOS 2251 DEB", "OBJECT_ID": "1993-036EN", "EPOCH": "2025-12-24T20:26:18.619296", "MEAN_MOTION": 14.33506993, "ECCENTRICITY": 0.00710191, "INCLINATION": 74.0888, "RA_OF_ASC_NODE": 38.0616, "ARG_OF_PERICENTER": 42.8616, "MEAN_ANOMALY": 317.804, "EPHEMERIS_TYPE": 0, "CLASSIFICATION_TYPE": "U", "NORAD_CAT_ID": 33933, "ELEMENT_SET_NO": 999, "REV_AT_EPOCH": 87958, "BSTAR": 0.00026965055, "MEAN_MOTION_DOT": 7.41e-06, "MEAN_MOTION_DDOT": 0}, "tle": {"line1": "1 33933U 93036EN  25358.85160439  .00000741  00000+0  26965-3 0  9993", "line2": "2 33933  74.0888  38.0616 0071019  42.8616 317.8040 14.33506993879580"}}, "geometry": {"type": "Point", "coordinates": [-174.8433590771075, 61.77491026924519]}}, {"type": "Feature", "properties": {"norad_id": 33934, "name": "COSMOS 2251 DEB", "group": "cosmos-2251-debris", "lat": -49.235056581860476, "lon": 57.265620627095274, "alt_km": 705.5595981392726, "timestamp": "2025-12-25T07:00:34.441300+00:00", "meta": {"OBJECT_NAME": "COSMOS 2251 DEB", "OBJECT_ID": "1993-036EP", "EPOCH": "2025-12-24T14:47:37.348800", "MEAN_MOTION": 14.59201194, "ECCENTRICITY": 0.00151393, "INCLINATION": 74.038, "RA_OF_ASC_NODE": 77.9425, "ARG_OF_PERICENTER": 201.5334, "MEAN_ANOMALY": 158.5197, "EPHEMERIS_TYPE": 0, "CLASSIFICATION_TYPE": "U", "NORAD_CAT_ID": 33934, "ELEMENT_SET_NO": 999, "REV_AT_EPOCH": 88912, "BSTAR": 0.00085511875, "MEAN_MOTION_DOT": 4.012e-05, "MEAN_MOTION_DDOT": 0}, "tle": {"line1": "1 33934U 93036EP  25358.61640450  .00004012  00000+0  85512-3 0  9992", "line2": "2 33934  74.0380  77.9425 0015139 201.5334 158.5197 14.59201194889127"}}, "geometry": {"type": "Point", "coordinates": [57.265620627095274, -49.235056581860476]}}, {"type": "Feature", "properties": {"norad_id": 33936, "name": "COSMOS 2251 DEB", "group": "cosmos-2251-debris", "lat": -66.04506429977779, "lon": -26.678526184985902, "alt_km": 708.9985632077187, "timestamp": "2025-12-25T07:00:34.441310+00:00", "meta": {"OBJECT_NAME": "COSMOS 2251 DEB", "OBJECT_ID": "1993-036ER", "EPOCH": "2025-12-24T11:36:37.344384", "MEAN_MOTION": 14.60338855, "ECCENTRICITY": 0.00267461, "INCLINATION": 74.0179, "RA_OF_ASC_NODE": 15.0368, "ARG_OF_PERICENTER": 167.6174, "MEAN_ANOMALY": 192.5655, "EPHEMERIS_TYPE": 0, "CLASSIFICATION_TYPE": "U", "NORAD_CAT_ID": 33936, "ELEMENT_SET_NO": 999, "REV_AT_EPOCH": 89061, "BSTAR": 0.00064051634, "MEAN_MOTION_DOT": 3.083e-05, "MEAN_MOTION_DDOT": 0}, "tle": {"line1": "1 33936U 93036ER  25358.48376556  .00003083  00000+0  64052-3 0  9995", "line2": "2 33936  74.0179  15.0368 0026746 167.6174 192.5655 14.60338855890614"}}, "geometry": {"type": "Point", "coordinates": [-26.678526184985902, -66.04506429977779]}}, {"type": "Feature", "properties": {"norad_id": 33938, "name": "COSMOS 2251 DEB", "group": "cosmos-2251-debris", "lat": -66.20441855456457, "lon": 44.193821021369175, "alt_km": 731.244735583854, "timestamp": "2025-12-25T07:00:34.441321+00:00", "meta": {"OBJECT_NAME": "COSMOS 2251 DEB", "OBJECT_ID": "1993-036ET", "EPOCH": "2025-12-24T22:05:43.868832", "MEAN_MOTION": 14.46829318, "ECCENTRICITY": 0.00168007, "INCLINATION": 74.0436, "RA_OF_ASC_NODE": 184.4336, "ARG_OF_PERICENTER": 265.6162, "MEAN_ANOMALY": 212.7273, "EPHEMERIS_TYPE": 0, "CLASSIFICATION_TYPE": "U", "NORAD_CAT_ID": 33938, "ELEMENT_SET_NO": 999, "REV_AT_EPOCH": 88576, "BSTAR": 0.00042990719, "MEAN_MOTION_DOT": 1.534e-05, "MEAN_MOTION_DDOT": 0}, "tle": {"line1": "1 33938U 93036ET  25358.92064663  .00001534  00000+0  42991-3 0  9996", "line2": "2 33938  74.0436 184.4336 0016800 265.6162 212.7273 14.46829318885768"}}, "geometry": {"type": "Point", "coordinates": [44.193821021369175, -66.20441855456457]}}]}